STARLINK-4403
1 53197U 22084J   26090.83335647 -.00014809  00000+0 -10296-2 0  9990
2 53197  97.6027 151.8986 0001598 108.7086 296.9269 15.05455776  5754
